CCSDS_OMM_VERS = 2.0
CREATION_DATE  = 
ORIGINATOR     = 

OBJECT_NAME    = STARLINK-35860
OBJECT_ID      = 2025-283D
CENTER_NAME    = EARTH
REF_FRAME      = TEME
TIME_SYSTEM    = UTC
MEAN_ELEMENT_THEORY = SGP/SGP4

EPOCH          = 2025-12-26T22:00:01.999584
MEAN_MOTION    = 15.54471194
ECCENTRICITY   = .00011545
INCLINATION    = 53.1599
RA_OF_ASC_NODE = 3.3747
ARG_OF_PERICENTER = 79.7232
MEAN_ANOMALY   = 351.8487

EPHEMERIS_TYPE = 0
CLASSIFICATION_TYPE = U
NORAD_CAT_ID   = 66881
ELEMENT_SET_NO = 999
REV_AT_EPOCH   = 470
BSTAR          = -.3327562E-1
MEAN_MOTION_DOT = -.1993756E-1
MEAN_MOTION_DDOT = 0

CCSDS_OMM_VERS = 2.0
CREATION_DATE  = 
ORIGINATOR     = 

OBJECT_NAME    = STARLINK-35912
OBJECT_ID      = 2025-283E
CENTER_NAME    = EARTH
REF_FRAME      = TEME
TIME_SYSTEM    = UTC
MEAN_ELEMENT_THEORY = SGP/SGP4

EPOCH          = 2025-12-26T22:00:01.999584
MEAN_MOTION    = 15.54469492
ECCENTRICITY   = .00011234
INCLINATION    = 53.1590
RA_OF_ASC_NODE = 3.3713
ARG_OF_PERICENTER = 83.5154
MEAN_ANOMALY   = 349.9759

EPHEMERIS_TYPE = 0
CLASSIFICATION_TYPE = U
NORAD_CAT_ID   = 66882
ELEMENT_SET_NO = 999
REV_AT_EPOCH   = 470
BSTAR          = -.33255209E-1
MEAN_MOTION_DOT = -.1992531E-1
MEAN_MOTION_DDOT = 0

CCSDS_OMM_VERS = 2.0
CREATION_DATE  = 
ORIGINATOR     = 

OBJECT_NAME    = STARLINK-35947
OBJECT_ID      = 2025-283F
CENTER_NAME    = EARTH
REF_FRAME      = TEME
TIME_SYSTEM    = UTC
MEAN_ELEMENT_THEORY = SGP/SGP4

EPOCH          = 2025-12-26T22:00:01.999584
MEAN_MOTION    = 15.54466248
ECCENTRICITY   = .00010577
INCLINATION    = 53.1595
RA_OF_ASC_NODE = 3.3673
ARG_OF_PERICENTER = 87.0034
MEAN_ANOMALY   = 348.4068

EPHEMERIS_TYPE = 0
CLASSIFICATION_TYPE = U
NORAD_CAT_ID   = 66883
ELEMENT_SET_NO = 999
REV_AT_EPOCH   = 475
BSTAR          = -.33156901E-1
MEAN_MOTION_DOT = -.1987002E-1
MEAN_MOTION_DDOT = 0

CCSDS_OMM_VERS = 2.0
CREATION_DATE  = 
ORIGINATOR     = 

OBJECT_NAME    = STARLINK-36057
OBJECT_ID      = 2025-283G
CENTER_NAME    = EARTH
REF_FRAME      = TEME
TIME_SYSTEM    = UTC
MEAN_ELEMENT_THEORY = SGP/SGP4

EPOCH          = 2025-12-26T22:00:01.999584
MEAN_MOTION    = 15.54471365
ECCENTRICITY   = .00009185
INCLINATION    = 53.1594
RA_OF_ASC_NODE = 3.3590
ARG_OF_PERICENTER = 95.8249
MEAN_ANOMALY   = 343.4178

EPHEMERIS_TYPE = 0
CLASSIFICATION_TYPE = U
NORAD_CAT_ID   = 66884
ELEMENT_SET_NO = 999
REV_AT_EPOCH   = 470
BSTAR          = -.33296793E-1
MEAN_MOTION_DOT = -.1994769E-1
MEAN_MOTION_DDOT = 0

CCSDS_OMM_VERS = 2.0
CREATION_DATE  = 
ORIGINATOR     = 

OBJECT_NAME    = STARLINK-35954
OBJECT_ID      = 2025-283H
CENTER_NAME    = EARTH
REF_FRAME      = TEME
TIME_SYSTEM    = UTC
MEAN_ELEMENT_THEORY = SGP/SGP4

EPOCH          = 2025-12-26T22:00:01.999584
MEAN_MOTION    = 15.54471325
ECCENTRICITY   = .00010264
INCLINATION    = 53.1594
RA_OF_ASC_NODE = 3.3635
ARG_OF_PERICENTER = 77.3690
MEAN_ANOMALY   = 359.9558

EPHEMERIS_TYPE = 0
CLASSIFICATION_TYPE = U
NORAD_CAT_ID   = 66885
ELEMENT_SET_NO = 999
REV_AT_EPOCH   = 470
BSTAR          = -.3332261E-1
MEAN_MOTION_DOT = -.1996213E-1
MEAN_MOTION_DDOT = 0

CCSDS_OMM_VERS = 2.0
CREATION_DATE  = 
ORIGINATOR     = 

OBJECT_NAME    = STARLINK-35900
OBJECT_ID      = 2025-283J
CENTER_NAME    = EARTH
REF_FRAME      = TEME
TIME_SYSTEM    = UTC
MEAN_ELEMENT_THEORY = SGP/SGP4

EPOCH          = 2025-12-26T22:00:01.999584
MEAN_MOTION    = 15.54470477
ECCENTRICITY   = .00010471
INCLINATION    = 53.1592
RA_OF_ASC_NODE = 3.3546
ARG_OF_PERICENTER = 81.0525
MEAN_ANOMALY   = 0.1057

EPHEMERIS_TYPE = 0
CLASSIFICATION_TYPE = U
NORAD_CAT_ID   = 66886
ELEMENT_SET_NO = 999
REV_AT_EPOCH   = 470
BSTAR          = -.33263727E-1
MEAN_MOTION_DOT = -.1993009E-1
MEAN_MOTION_DDOT = 0

CCSDS_OMM_VERS = 2.0
CREATION_DATE  = 
ORIGINATOR     = 

OBJECT_NAME    = STARLINK-35925
OBJECT_ID      = 2025-283K
CENTER_NAME    = EARTH
REF_FRAME      = TEME
TIME_SYSTEM    = UTC
MEAN_ELEMENT_THEORY = SGP/SGP4

EPOCH          = 2025-12-26T22:00:01.999584
MEAN_MOTION    = 15.54468793
ECCENTRICITY   = .00010328
INCLINATION    = 53.1597
RA_OF_ASC_NODE = 3.3505
ARG_OF_PERICENTER = 82.2323
MEAN_ANOMALY   = 0.8447

EPHEMERIS_TYPE = 0
CLASSIFICATION_TYPE = U
NORAD_CAT_ID   = 66887
ELEMENT_SET_NO = 999
REV_AT_EPOCH   = 470
BSTAR          = -.33232377E-1
MEAN_MOTION_DOT = -.1991207E-1
MEAN_MOTION_DDOT = 0

CCSDS_OMM_VERS = 2.0
CREATION_DATE  = 
ORIGINATOR     = 

OBJECT_NAME    = STARLINK-35919
OBJECT_ID      = 2025-283L
CENTER_NAME    = EARTH
REF_FRAME      = TEME
TIME_SYSTEM    = UTC
MEAN_ELEMENT_THEORY = SGP/SGP4

EPOCH          = 2025-12-26T22:00:01.999584
MEAN_MOTION    = 15.54472368
ECCENTRICITY   = .00010598
INCLINATION    = 53.1597
RA_OF_ASC_NODE = 3.3462
ARG_OF_PERICENTER = 79.2251
MEAN_ANOMALY   = 5.7656

EPHEMERIS_TYPE = 0
CLASSIFICATION_TYPE = U
NORAD_CAT_ID   = 66888
ELEMENT_SET_NO = 999
REV_AT_EPOCH   = 470
BSTAR          = -.33300396E-1
MEAN_MOTION_DOT = -.1995108E-1
MEAN_MOTION_DDOT = 0

CCSDS_OMM_VERS = 2.0
CREATION_DATE  = 
ORIGINATOR     = 

OBJECT_NAME    = STARLINK-35852
OBJECT_ID      = 2025-283M
CENTER_NAME    = EARTH
REF_FRAME      = TEME
TIME_SYSTEM    = UTC
MEAN_ELEMENT_THEORY = SGP/SGP4

EPOCH          = 2025-12-26T22:00:01.999584
MEAN_MOTION    = 15.54471522
ECCENTRICITY   = .00010942
INCLINATION    = 53.1596
RA_OF_ASC_NODE = 3.3421
ARG_OF_PERICENTER = 76.1246
MEAN_ANOMALY   = 10.7848

EPHEMERIS_TYPE = 0
CLASSIFICATION_TYPE = U
NORAD_CAT_ID   = 66889
ELEMENT_SET_NO = 999
REV_AT_EPOCH   = 470
BSTAR          = -.33321278E-1
MEAN_MOTION_DOT = -.1996193E-1
MEAN_MOTION_DDOT = 0

CCSDS_OMM_VERS = 2.0
CREATION_DATE  = 
ORIGINATOR     = 

OBJECT_NAME    = STARLINK-35885
OBJECT_ID      = 2025-283N
CENTER_NAME    = EARTH
REF_FRAME      = TEME
TIME_SYSTEM    = UTC
MEAN_ELEMENT_THEORY = SGP/SGP4

EPOCH          = 2025-12-26T22:00:01.999584
MEAN_MOTION    = 15.54470605
ECCENTRICITY   = .0001118
INCLINATION    = 53.1598
RA_OF_ASC_NODE = 3.3384
ARG_OF_PERICENTER = 77.0841
MEAN_ANOMALY   = 11.7415

EPHEMERIS_TYPE = 0
CLASSIFICATION_TYPE = U
NORAD_CAT_ID   = 66890
ELEMENT_SET_NO = 999
REV_AT_EPOCH   = 470
BSTAR          = -.33274131E-1
MEAN_MOTION_DOT = -.1993616E-1
MEAN_MOTION_DDOT = 0

CCSDS_OMM_VERS = 2.0
CREATION_DATE  = 
ORIGINATOR     = 

OBJECT_NAME    = STARLINK-35855
OBJECT_ID      = 2025-283P
CENTER_NAME    = EARTH
REF_FRAME      = TEME
TIME_SYSTEM    = UTC
MEAN_ELEMENT_THEORY = SGP/SGP4

EPOCH          = 2025-12-26T22:00:01.999584
MEAN_MOTION    = 15.54470683
ECCENTRICITY   = .00010777
INCLINATION    = 53.1597
RA_OF_ASC_NODE = 3.3342
ARG_OF_PERICENTER = 76.7269
MEAN_ANOMALY   = 14.0136

EPHEMERIS_TYPE = 0
CLASSIFICATION_TYPE = U
NORAD_CAT_ID   = 66891
ELEMENT_SET_NO = 999
REV_AT_EPOCH   = 470
BSTAR          = -.33227575E-1
MEAN_MOTION_DOT = -.19911E-1
MEAN_MOTION_DDOT = 0

CCSDS_OMM_VERS = 2.0
CREATION_DATE  = 
ORIGINATOR     = 

OBJECT_NAME    = STARLINK-35883
OBJECT_ID      = 2025-283Q
CENTER_NAME    = EARTH
REF_FRAME      = TEME
TIME_SYSTEM    = UTC
MEAN_ELEMENT_THEORY = SGP/SGP4

EPOCH          = 2025-12-26T22:00:01.999584
MEAN_MOTION    = 15.54462315
ECCENTRICITY   = .00011521
INCLINATION    = 53.1595
RA_OF_ASC_NODE = 3.3297
ARG_OF_PERICENTER = 83.1303
MEAN_ANOMALY   = 9.5337

EPHEMERIS_TYPE = 0
CLASSIFICATION_TYPE = U
NORAD_CAT_ID   = 66892
ELEMENT_SET_NO = 999
REV_AT_EPOCH   = 464
BSTAR          = -.33078103E-1
MEAN_MOTION_DOT = -.1982566E-1
MEAN_MOTION_DDOT = 0

