STARLINK-35860          
1 66881U 25283D   25360.91668981 -.01993756  00000+0 -33276-1 0  9996
2 66881  53.1599   3.3747 0001154  79.7232 351.8487 15.54471194  4706
STARLINK-35912          
1 66882U 25283E   25360.91668981 -.01992531  00000+0 -33255-1 0  9994
2 66882  53.1590   3.3713 0001123  83.5154 349.9759 15.54469492  4701
STARLINK-35947          
1 66883U 25283F   25360.91668981 -.01987002  00000+0 -33157-1 0  9993
2 66883  53.1595   3.3673 0001057  87.0034 348.4068 15.54466248  4752
STARLINK-36057          
1 66884U 25283G   25360.91668981 -.01994769  00000+0 -33297-1 0  9997
2 66884  53.1594   3.3590 0000918  95.8249 343.4178 15.54471365  4708
STARLINK-35954          
1 66885U 25283H   25360.91668981 -.01996213  00000+0 -33323-1 0  9994
2 66885  53.1594   3.3635 0001026  77.3690 359.9558 15.54471325  4705
STARLINK-35900          
1 66886U 25283J   25360.91668981 -.01993009  00000+0 -33264-1 0  9999
2 66886  53.1592   3.3546 0001047  81.0525   0.1057 15.54470477  4703
STARLINK-35925          
1 66887U 25283K   25360.91668981 -.01991207  00000+0 -33232-1 0  9993
2 66887  53.1597   3.3505 0001032  82.2323   0.8447 15.54468793  4705
STARLINK-35919          
1 66888U 25283L   25360.91668981 -.01995108  00000+0 -33300-1 0  9994
2 66888  53.1597   3.3462 0001059  79.2251   5.7656 15.54472368  4702
STARLINK-35852          
1 66889U 25283M   25360.91668981 -.01996193  00000+0 -33321-1 0  9993
2 66889  53.1596   3.3421 0001094  76.1246  10.7848 15.54471522  4706
STARLINK-35885          
1 66890U 25283N   25360.91668981 -.01993616  00000+0 -33274-1 0  9999
2 66890  53.1598   3.3384 0001118  77.0841  11.7415 15.54470605  4708
STARLINK-35855          
1 66891U 25283P   25360.91668981 -.01991100  00000+0 -33228-1 0  9995
2 66891  53.1597   3.3342 0001077  76.7269  14.0136 15.54470683  4708
STARLINK-35883          
1 66892U 25283Q   25360.91668981 -.01982566  00000+0 -33078-1 0  9995
2 66892  53.1595   3.3297 0001152  83.1303   9.5337 15.54462315  4649
